STARLINK-37614          
1 69041U 26101S   26179.55894615  .00016829  00000+0  52248-3 0  9997
2 69041  97.2855  34.2164 0001272  90.9358 269.2030 15.33443618  8316
STARLINK-37644          
1 69042U 26101T   26179.54535068  .00026727  00000+0  82709-3 0  9994
2 69042  97.2842  34.2348 0001622 120.5951 239.5452 15.33451162  8316
STARLINK-37571          
1 69043U 26101U   26179.55078900  .00015119  00000+0  46973-3 0  9999
2 69043  97.2856  34.2278 0002278  87.2841 272.8663 15.33441914  8317
STARLINK-37664          
1 69044U 26101V   26179.60788489  .00005607  00000+0  17585-3 0  9994
2 69044  97.2852  34.3024 0001712  93.9583 266.1855 15.33446376  8320
STARLINK-37667          
1 69045U 26101W   26179.59973888  .00011258  00000+0  35047-3 0  9994
2 69045  97.2851  34.3154 0001733  92.5821 267.5620 15.33448395  8325
STARLINK-37666          
1 69046U 26101X   26179.97494872  .00016241  00000+0  50435-3 0  9993
2 69046  97.2852  34.7232 0001443  91.7227 268.4181 15.33442669  8383
STARLINK-37576          
1 69047U 26101Y   26179.57797846  .00023157  00000+0  71727-3 0  9998
2 69047  97.2837  34.3465 0002091  92.5390 267.6092 15.33450864  8323
STARLINK-37663          
1 69048U 26101Z   26179.59157208  .00011117  00000+0  34624-3 0  9991
2 69048  97.2845  34.3244 0001802  95.3198 264.8250 15.33438885  8328
TIANZHOU-10             
1 69049U 26102A   26179.62069862  .00019914  00000+0  23071-3 0  9992
2 69049  41.4685 252.3977 0008338 172.7064 187.3897 15.61304526  7746
QIANFAN-127             
1 69073U 26104A   26179.70586402 -.02028645  00000+0 -21190+1 0  9996
2 69073  88.9873 340.3449 0009300  61.4379 298.7723 13.79327959  6682
QIANFAN-128             
1 69074U 26104B   26179.73151476 -.02140037  00000+0 -23572+1 0  9995
2 69074  88.9876 340.3694 0002829 101.3045 258.8439 13.76391093  6678
QIANFAN-129             
1 69075U 26104C   26179.69208208 -.02070480  00000+0 -21015+1 0  9991
2 69075  88.9870 340.3245 0012964  64.9699 295.2814 13.81104935  6692
QIANFAN-130             
1 69076U 26104D   26179.70684134 -.02048393  00000+0 -21721+1 0  9992
2 69076  88.9873 340.3645 0009374  61.1599 299.0508 13.78466835  6675
QIANFAN-131             
1 69077U 26104E   26179.71541158 -.02058404  00000+0 -21921+1 0  9998
2 69077  88.9861 340.3457 0007331  76.8032 283.3952 13.78239232  6689
QIANFAN-132             
1 69078U 26104F   26179.76039102 -.02041395  00000+0 -23368+1 0  9993
2 69078  88.9871 340.3728 0003203 142.2362 217.9027 13.73863148  6679
QIANFAN-133             
1 69079U 26104G   26179.75100067 -.02020293  00000+0 -20596+1 0  9996
2 69079  88.9869 340.3528 0012920  41.6575 318.5575 13.80743410  6683
QIANFAN-134             
1 69080U 26104H   26179.71956732 -.02081938  00000+0 -23126+1 0  9997
2 69080  88.9871 340.3649 0005997  22.3077 337.8348 13.75757650  6677
QIANFAN-135             
1 69081U 26104J   26179.69095674 -.02023025  00000+0 -21832+1 0  9999
2 69081  88.9869 340.3612 0005800  80.4295 279.7526 13.77376453  6677
QIANFAN-136             
1 69082U 26104K   26179.68915616 -.02011933  00000+0 -22302+1 0  9994
2 69082  88.9867 340.3601 0007290  34.6743 325.4896 13.75735895  6674
QIANFAN-137             
1 69083U 26104L   26179.68987347 -.02138709  00000+0 -18144+1 0  9995
2 69083  88.9868 340.2867 0007330  86.0910 274.1102 13.91792106  6712
QIANFAN-138             
1 69084U 26104M   26179.75387620 -.02078554  00000+0 -23148+1 0  9993
2 69084  88.9861 340.3516 0004681 121.0061 239.1565 13.75598308  6681
QIANFAN-139             
1 69085U 26104N   26179.71907344 -.02044963  00000+0 -22047+1 0  9995
2 69085  88.9868 340.3473 0005581  88.2929 271.8876 13.77479321  6681
QIANFAN-140             
1 69086U 26104P   26179.71228079 -.02033094  00000+0 -21474+1 0  9993
2 69086  88.9872 340.3461 0006813  86.5018 273.6929 13.78680849  6682
QIANFAN-141             
1 69087U 26104Q   26179.75757658 -.02004099  00000+0 -20192+1 0  9997
2 69087  88.9873 340.3339 0011240  71.7408 288.4983 13.81417736  6699
QIANFAN-142             
1 69088U 26104R   26179.73305292 -.02116711  00000+0 -20405+1 0  9991
2 69088  88.9885 340.3270 0009500  38.1093 322.0747 13.84270352  6697
QIANFAN-143             
1 69089U 26104S   26179.72091990 -.02100457  00000+0 -21136+1 0  9990
2 69089  88.9876 340.3283 0014547  54.7585 305.4943 13.81671512  6692
QIANFAN-144             
1 69090U 26104T   26179.73490709 -.02094857  00000+0 -21606+1 0  9992
2 69090  88.9838 340.3283 0013692  26.8795 333.3080 13.80197789  6695
ZHUQUE-2E R/B           
1 69095U 26105A   26179.99615966  .00095282 -56972-6  22709-3 0  9994
2 69095  88.9683 192.6487 0437973 253.0536 102.2276 15.19568255  6943
2026-106A               
1 69097U 26106A   26179.93232736  .00005870  00000+0  35101-3 0  9998
2 69097  97.5098 261.8061 0015607 124.3443 235.9266 15.11335746  6752
2026-106B               
1 69098U 26106B   26179.96240055  .00004228  00000+0  26530-3 0  9997
2 69098  97.5086 261.7572 0016312 119.5334 240.7524 15.09726386  6757
