OBJECT_NAME,OBJECT_ID,EPOCH,MEAN_MOTION,ECCENTRICITY,INCLINATION,RA_OF_ASC_NODE,ARG_OF_PERICENTER,MEAN_ANOMALY,EPHEMERIS_TYPE,CLASSIFICATION_TYPE,NORAD_CAT_ID,ELEMENT_SET_NO,REV_AT_EPOCH,BSTAR,MEAN_MOTION_DOT,MEAN_MOTION_DDOT
STARLINK-37614,2026-101S,2026-06-28T13:24:52.947360,15.33443618,.00012722,97.2855,34.2164,90.9358,269.2030,0,U,69041,999,831,.52247641E-3,.16829E-3,0
STARLINK-37644,2026-101T,2026-06-28T13:05:18.298752,15.33451162,.00016224,97.2842,34.2348,120.5951,239.5452,0,U,69042,999,831,.8270943E-3,.26727E-3,0
STARLINK-37571,2026-101U,2026-06-28T13:13:08.169600,15.33441914,.00022789,97.2856,34.2278,87.2841,272.8663,0,U,69043,999,831,.46973052E-3,.15119E-3,0
STARLINK-37664,2026-101V,2026-06-28T14:35:21.254496,15.33446376,.0001712,97.2852,34.3024,93.9583,266.1855,0,U,69044,999,832,.17585442E-3,.5607E-4,0
STARLINK-37667,2026-101W,2026-06-28T14:23:37.439232,15.33448395,.00017338,97.2851,34.3154,92.5821,267.5620,0,U,69045,999,832,.35047171E-3,.11258E-3,0
STARLINK-37666,2026-101X,2026-06-28T23:23:55.569408,15.33442669,.00014435,97.2852,34.7232,91.7227,268.4181,0,U,69046,999,838,.50434618E-3,.16241E-3,0
STARLINK-37576,2026-101Y,2026-06-28T13:52:17.338944,15.33450864,.00020914,97.2837,34.3465,92.5390,267.6092,0,U,69047,999,832,.71726852E-3,.23157E-3,0
STARLINK-37663,2026-101Z,2026-06-28T14:11:51.827712,15.33438885,.00018027,97.2845,34.3244,95.3198,264.8250,0,U,69048,999,832,.34623506E-3,.11117E-3,0
TIANZHOU-10,2026-102A,2026-06-28T14:53:48.360768,15.61304526,.00083389,41.4685,252.3977,172.7064,187.3897,0,U,69049,999,774,.23071257E-3,.19914E-3,0
QIANFAN-127,2026-104A,2026-06-28T16:56:26.651328,13.79327959,.00093003,88.9873,340.3449,61.4379,298.7723,0,U,69073,999,668,-.21190145E+1,-.2028645E-1,0
QIANFAN-128,2026-104B,2026-06-28T17:33:22.875264,13.76391093,.00028294,88.9876,340.3694,101.3045,258.8439,0,U,69074,999,667,-.23571633E+1,-.2140037E-1,0
QIANFAN-129,2026-104C,2026-06-28T16:36:35.891712,13.81104935,.00129642,88.9870,340.3245,64.9699,295.2814,0,U,69075,999,669,-.21015419E+1,-.207048E-1,0
QIANFAN-130,2026-104D,2026-06-28T16:57:51.091776,13.78466835,.00093749,88.9873,340.3645,61.1599,299.0508,0,U,69076,999,667,-.21721289E+1,-.2048393E-1,0
QIANFAN-131,2026-104E,2026-06-28T17:10:11.560512,13.78239232,.00073317,88.9861,340.3457,76.8032,283.3952,0,U,69077,999,668,-.21920816E+1,-.2058404E-1,0
QIANFAN-132,2026-104F,2026-06-28T18:14:57.784128,13.73863148,.00032035,88.9871,340.3728,142.2362,217.9027,0,U,69078,999,667,-.23368226E+1,-.2041395E-1,0
QIANFAN-133,2026-104G,2026-06-28T18:01:26.457888,13.80743410,.00129209,88.9869,340.3528,41.6575,318.5575,0,U,69079,999,668,-.20595653E+1,-.2020293E-1,0
QIANFAN-134,2026-104H,2026-06-28T17:16:10.616448,13.75757650,.00059978,88.9871,340.3649,22.3077,337.8348,0,U,69080,999,667,-.23126123E+1,-.2081938E-1,0
QIANFAN-135,2026-104J,2026-06-28T16:34:58.662336,13.77376453,.00058009,88.9869,340.3612,80.4295,279.7526,0,U,69081,999,667,-.2183163E+1,-.2023025E-1,0
QIANFAN-136,2026-104K,2026-06-28T16:32:23.092224,13.75735895,.00072907,88.9867,340.3601,34.6743,325.4896,0,U,69082,999,667,-.22302324E+1,-.2011933E-1,0
QIANFAN-137,2026-104L,2026-06-28T16:33:25.067808,13.91792106,.00073302,88.9868,340.2867,86.0910,274.1102,0,U,69083,999,671,-.18143681E+1,-.2138709E-1,0
QIANFAN-138,2026-104M,2026-06-28T18:05:34.903680,13.75598308,.00046817,88.9861,340.3516,121.0061,239.1565,0,U,69084,999,668,-.23148179E+1,-.2078554E-1,0
QIANFAN-139,2026-104N,2026-06-28T17:15:27.945216,13.77479321,.00055817,88.9868,340.3473,88.2929,271.8876,0,U,69085,999,668,-.22047207E+1,-.2044963E-1,0
QIANFAN-140,2026-104P,2026-06-28T17:05:41.060256,13.78680849,.00068138,88.9872,340.3461,86.5018,273.6929,0,U,69086,999,668,-.21474225E+1,-.2033094E-1,0
QIANFAN-141,2026-104Q,2026-06-28T18:10:54.616512,13.81417736,.00112407,88.9873,340.3339,71.7408,288.4983,0,U,69087,999,669,-.20192037E+1,-.2004099E-1,0
QIANFAN-142,2026-104R,2026-06-28T17:35:35.772288,13.84270352,.00095001,88.9885,340.3270,38.1093,322.0747,0,U,69088,999,669,-.20405248E+1,-.2116711E-1,0
QIANFAN-143,2026-104S,2026-06-28T17:18:07.479360,13.81671512,.00145473,88.9876,340.3283,54.7585,305.4943,0,U,69089,999,669,-.21135639E+1,-.2100457E-1,0
QIANFAN-144,2026-104T,2026-06-28T17:38:15.972576,13.80197789,.00136927,88.9838,340.3283,26.8795,333.3080,0,U,69090,999,669,-.2160576E+1,-.2094857E-1,0
ZHUQUE-2E R/B,2026-105A,2026-06-28T23:54:28.194624,15.19568255,.04379736,88.9683,192.6487,253.0536,102.2276,0,U,69095,999,694,.22708823E-3,.95282E-3,-.569725E-6
2026-106A,2026-106A,2026-06-28T22:22:33.083904,15.11335746,.00156079,97.5098,261.8061,124.3443,235.9266,0,U,69097,999,675,.35100524E-3,.587E-4,0
2026-106B,2026-106B,2026-06-28T23:05:51.407520,15.09726386,.00163125,97.5086,261.7572,119.5334,240.7524,0,U,69098,999,675,.26529921E-3,.4228E-4,0
